{"fetched_at":"2026-07-20T18:29:09.813Z","source":"https://celestrak.org/NORAD/elements/gp.php?GROUP=stations&FORMAT=JSON","constellation":"crewed-vehicles","records":[{"OBJECT_NAME":"SOYUZ-MS 28","OBJECT_ID":"2025-275A","EPOCH":"2026-07-20T02:07:54.205248","CLASSIFICATION_TYPE":"U","MEAN_MOTION":15.49056873,"ECCENTRICITY":0.00068137,"INCLINATION":51.6315,"RA_OF_ASC_NODE":137.2714,"ARG_OF_PERICENTER":316.7062,"MEAN_ANOMALY":43.339,"EPHEMERIS_TYPE":0,"NORAD_CAT_ID":66664,"ELEMENT_SET_NO":999,"REV_AT_EPOCH":57611,"BSTAR":0.00009099994,"MEAN_MOTION_DOT":0.00004577,"MEAN_MOTION_DDOT":0},{"OBJECT_NAME":"CREW DRAGON 12","OBJECT_ID":"2026-031A","EPOCH":"2026-07-20T02:07:54.205248","CLASSIFICATION_TYPE":"U","MEAN_MOTION":15.49056873,"ECCENTRICITY":0.00068137,"INCLINATION":51.6315,"RA_OF_ASC_NODE":137.2714,"ARG_OF_PERICENTER":316.7062,"MEAN_ANOMALY":43.339,"EPHEMERIS_TYPE":0,"NORAD_CAT_ID":67796,"ELEMENT_SET_NO":999,"REV_AT_EPOCH":57620,"BSTAR":0.00009099994,"MEAN_MOTION_DOT":0.00004577,"MEAN_MOTION_DDOT":0},{"OBJECT_NAME":"SHENZHOU-23 (SZ-23)","OBJECT_ID":"2026-113A","EPOCH":"2026-07-20T03:36:22.101984","CLASSIFICATION_TYPE":"U","MEAN_MOTION":15.58213113,"ECCENTRICITY":0.00019156,"INCLINATION":41.4683,"RA_OF_ASC_NODE":121.7978,"ARG_OF_PERICENTER":306.7446,"MEAN_ANOMALY":53.3216,"EPHEMERIS_TYPE":0,"NORAD_CAT_ID":69180,"ELEMENT_SET_NO":999,"REV_AT_EPOCH":29779,"BSTAR":0.00015004409,"MEAN_MOTION_DOT":0.00011348,"MEAN_MOTION_DDOT":0}]}
